{
  "type": "FeatureCollection",
  "features": [
    {
      "type": "Feature",
      "properties": {
        "norad_id": 30913,
        "name": "FENGYUN 1C DEB",
        "group": "fengyun-1c-debris",
        "lat": -71.94353353042841,
        "lon": 161.8021003013814,
        "alt_km": 867.4998524494085,
        "timestamp": "2025-12-08T21:31:04.947206+00:00",
        "meta_object_name": "FENGYUN 1C DEB",
        "meta_object_id": "1999-025AZB",
        "meta_epoch": "2025-12-08T08:20:57.907680",
        "meta_mean_motion": 14.04940156,
        "meta_eccentricity": 0.00484104,
        "meta_inclination": 98.7465,
        "meta_ra_of_asc_node": 9.4518,
        "meta_arg_of_pericenter": 193.4219,
        "meta_mean_anomaly": 166.5665,
        "meta_ephemeris_type": 0,
        "meta_classification_type": "U",
        "meta_norad_cat_id": 30913,
        "meta_element_set_no": 999,
        "meta_rev_at_epoch": 95856,
        "meta_bstar": 0.0010166764,
        "meta_mean_motion_dot": 1.61e-05,
        "meta_mean_motion_ddot": 0,
        "tle_line1": "1 30913U 99025AZB 25342.34789245  .00001610  00000+0  10167-2 0  9993",
        "tle_line2": "2 30913  98.7465   9.4518 0048410 193.4219 166.5665 14.04940156958562"
      },
      "geometry": {
        "type": "Point",
        "coordinates": [
          161.8021003013814,
          -71.94353353042841
        ]
      }
    },
    {
      "type": "Feature",
      "properties": {
        "norad_id": 30914,
        "name": "FENGYUN 1C DEB",
        "group": "fengyun-1c-debris",
        "lat": 17.357647977142253,
        "lon": -136.11265486858585,
        "alt_km": 847.5306161943217,
        "timestamp": "2025-12-08T21:31:04.947216+00:00",
        "meta_object_name": "FENGYUN 1C DEB",
        "meta_object_id": "1999-025AZC",
        "meta_epoch": "2025-12-05T09:02:51.683712",
        "meta_mean_motion": 13.08779712,
        "meta_eccentricity": 0.05156065,
        "meta_inclination": 99.9823,
        "meta_ra_of_asc_node": 223.7471,
        "meta_arg_of_pericenter": 11.0586,
        "meta_mean_anomaly": 350.1366,
        "meta_ephemeris_type": 0,
        "meta_classification_type": "U",
        "meta_norad_cat_id": 30914,
        "meta_element_set_no": 999,
        "meta_rev_at_epoch": 58979,
        "meta_bstar": 0.0075081183,
        "meta_mean_motion_dot": 4.885e-05,
        "meta_mean_motion_ddot": 0,
        "tle_line1": "1 30914U 99025AZC 25339.37698708  .00004885  00000+0  75081-2 0  9999",
        "tle_line2": "2 30914  99.9823 223.7471 0515606  11.0586 350.1366 13.08779712589796"
      },
      "geometry": {
        "type": "Point",
        "coordinates": [
          -136.11265486858585,
          17.357647977142253
        ]
      }
    },
    {
      "type": "Feature",
      "properties": {
        "norad_id": 30915,
        "name": "FENGYUN 1C DEB",
        "group": "fengyun-1c-debris",
        "lat": -69.73425540955571,
        "lon": 84.23859300859458,
        "alt_km": 828.5014837522813,
        "timestamp": "2025-12-08T21:31:04.947226+00:00",
        "meta_object_name": "FENGYUN 1C DEB",
        "meta_object_id": "1999-025AZD",
        "meta_epoch": "2025-12-08T11:44:45.480192",
        "meta_mean_motion": 14.24991653,
        "meta_eccentricity": 0.00538274,
        "meta_inclination": 98.9417,
        "meta_ra_of_asc_node": 58.5843,
        "meta_arg_of_pericenter": 179.9347,
        "meta_mean_anomaly": 180.1847,
        "meta_ephemeris_type": 0,
        "meta_classification_type": "U",
        "meta_norad_cat_id": 30915,
        "meta_element_set_no": 999,
        "meta_rev_at_epoch": 96452,
        "meta_bstar": 0.0023703387,
        "meta_mean_motion_dot": 5.589e-05,
        "meta_mean_motion_ddot": 0,
        "tle_line1": "1 30915U 99025AZD 25342.48941528  .00005589  00000+0  23703-2 0  9993",
        "tle_line2": "2 30915  98.9417  58.5843 0053827 179.9347 180.1847 14.24991653964525"
      },
      "geometry": {
        "type": "Point",
        "coordinates": [
          84.23859300859458,
          -69.73425540955571
        ]
      }
    },
    {
      "type": "Feature",
      "properties": {
        "norad_id": 30916,
        "name": "FENGYUN 1C DEB",
        "group": "fengyun-1c-debris",
        "lat": -16.675646608682403,
        "lon": -139.47563866802693,
        "alt_km": 854.4205992147436,
        "timestamp": "2025-12-08T21:31:04.947236+00:00",
        "meta_object_name": "FENGYUN 1C DEB",
        "meta_object_id": "1999-025AZE",
        "meta_epoch": "2025-12-08T03:39:40.753728",
        "meta_mean_motion": 14.08769157,
        "meta_eccentricity": 0.00624943,
        "meta_inclination": 99.0022,
        "meta_ra_of_asc_node": 42.5034,
        "meta_arg_of_pericenter": 271.2644,
        "meta_mean_anomaly": 114.8726,
        "meta_ephemeris_type": 0,
        "meta_classification_type": "U",
        "meta_norad_cat_id": 30916,
        "meta_element_set_no": 999,
        "meta_rev_at_epoch": 95779,
        "meta_bstar": 0.0015590716,
        "meta_mean_motion_dot": 2.693e-05,
        "meta_mean_motion_ddot": 0,
        "tle_line1": "1 30916U 99025AZE 25342.15255502  .00002693  00000+0  15591-2 0  9997",
        "tle_line2": "2 30916  99.0022  42.5034 0062494 271.2644 114.8726 14.08769157957796"
      },
      "geometry": {
        "type": "Point",
        "coordinates": [
          -139.47563866802693,
          -16.675646608682403
        ]
      }
    },
    {
      "type": "Feature",
      "properties": {
        "norad_id": 30918,
        "name": "FENGYUN 1C DEB",
        "group": "fengyun-1c-debris",
        "lat": 80.55165492436905,
        "lon": 32.600760504421814,
        "alt_km": 822.7354089292712,
        "timestamp": "2025-12-08T21:31:04.947246+00:00",
        "meta_object_name": "FENGYUN 1C DEB",
        "meta_object_id": "1999-025AZG",
        "meta_epoch": "2025-12-04T19:44:20.227776",
        "meta_mean_motion": 13.96769696,
        "meta_eccentricity": 0.0158492,
        "meta_inclination": 98.4163,
        "meta_ra_of_asc_node": 91.6979,
        "meta_arg_of_pericenter": 147.4427,
        "meta_mean_anomaly": 344.5797,
        "meta_ephemeris_type": 0,
        "meta_classification_type": "U",
        "meta_norad_cat_id": 30918,
        "meta_element_set_no": 999,
        "meta_rev_at_epoch": 94942,
        "meta_bstar": 0.0025721918,
        "meta_mean_motion_dot": 3.935e-05,
        "meta_mean_motion_ddot": 0,
        "tle_line1": "1 30918U 99025AZG 25338.82245634  .00003935  00000+0  25722-2 0  9990",
        "tle_line2": "2 30918  98.4163  91.6979 0158492 147.4427 344.5797 13.96769696949422"
      },
      "geometry": {
        "type": "Point",
        "coordinates": [
          32.600760504421814,
          80.55165492436905
        ]
      }
    },
    {
      "type": "Feature",
      "properties": {
        "norad_id": 30920,
        "name": "FENGYUN 1C DEB",
        "group": "fengyun-1c-debris",
        "lat": 74.62880608495583,
        "lon": 89.34291441437628,
        "alt_km": 762.1311451378897,
        "timestamp": "2025-12-08T21:31:04.947257+00:00",
        "meta_object_name": "FENGYUN 1C DEB",
        "meta_object_id": "1999-025AZJ",
        "meta_epoch": "2025-12-08T16:04:14.399040",
        "meta_mean_motion": 14.16532714,
        "meta_eccentricity": 0.01104198,
        "meta_inclination": 98.9195,
        "meta_ra_of_asc_node": 123.9541,
        "meta_arg_of_pericenter": 110.1161,
        "meta_mean_anomaly": 251.1935,
        "meta_ephemeris_type": 0,
        "meta_classification_type": "U",
        "meta_norad_cat_id": 30920,
        "meta_element_set_no": 999,
        "meta_rev_at_epoch": 95036,
        "meta_bstar": 0.0057738937,
        "meta_mean_motion_dot": 0.00012183,
        "meta_mean_motion_ddot": 0,
        "tle_line1": "1 30920U 99025AZJ 25342.66961110  .00012183  00000+0  57739-2 0  9992",
        "tle_line2": "2 30920  98.9195 123.9541 0110419 110.1161 251.1935 14.16532714950362"
      },
      "geometry": {
        "type": "Point",
        "coordinates": [
          89.34291441437628,
          74.62880608495583
        ]
      }
    },
    {
      "type": "Feature",
      "properties": {
        "norad_id": 30921,
        "name": "FENGYUN 1C DEB",
        "group": "fengyun-1c-debris",
        "lat": 74.87440737128048,
        "lon": -74.53720374670463,
        "alt_km": 768.132523692122,
        "timestamp": "2025-12-08T21:31:04.947267+00:00",
        "meta_object_name": "FENGYUN 1C DEB",
        "meta_object_id": "1999-025AZK",
        "meta_epoch": "2025-12-08T04:33:00.892224",
        "meta_mean_motion": 14.32669043,
        "meta_eccentricity": 0.00171115,
        "meta_inclination": 98.8429,
        "meta_ra_of_asc_node": 69.5766,
        "meta_arg_of_pericenter": 52.0501,
        "meta_mean_anomaly": 5.7634,
        "meta_ephemeris_type": 0,
        "meta_classification_type": "U",
        "meta_norad_cat_id": 30921,
        "meta_element_set_no": 999,
        "meta_rev_at_epoch": 96759,
        "meta_bstar": 0.0023427679,
        "meta_mean_motion_dot": 6.34e-05,
        "meta_mean_motion_ddot": 0,
        "tle_line1": "1 30921U 99025AZK 25342.18959366  .00006340  00000+0  23428-2 0  9996",
        "tle_line2": "2 30921  98.8429  69.5766 0017111  52.0501   5.7634 14.32669043967599"
      },
      "geometry": {
        "type": "Point",
        "coordinates": [
          -74.53720374670463,
          74.87440737128048
        ]
      }
    }
  ]
}